OBJECT_NAME,OBJECT_ID,EPOCH,MEAN_MOTION,ECCENTRICITY,INCLINATION,RA_OF_ASC_NODE,ARG_OF_PERICENTER,MEAN_ANOMALY,EPHEMERIS_TYPE,CLASSIFICATION_TYPE,NORAD_CAT_ID,ELEMENT_SET_NO,REV_AT_EPOCH,BSTAR,MEAN_MOTION_DOT,MEAN_MOTION_DDOT
STARLINK-35399,2025-232AA,2026-07-05T05:54:00.417024,15.34444406,.00008293,53.1597,277.1779,98.1943,261.9154,0,U,66029,999,4144,.11926049E-2,.40191E-3,0
STARLINK-35431,2025-232AB,2026-07-05T05:11:35.520576,15.34439344,.00014057,53.1571,276.9957,89.9279,270.1884,0,U,66030,999,4144,.99619001E-3,.33474E-3,0
STARLINK-35326,2025-232AC,2026-07-05T05:59:56.301216,15.34446851,.00007446,53.1592,276.4906,84.9424,275.1663,0,U,66031,999,4145,.83900166E-3,.28119E-3,0
STARLINK-35311,2025-232AD,2026-07-04T12:54:14.994720,15.34456277,.00009427,53.1587,279.8666,66.7005,293.4097,0,U,66032,999,4134,.18098395E-2,.61384E-3,0
STARLINK-35552,2025-235A,2026-07-04T01:47:03.460704,15.34398925,.00011386,53.1576,60.1549,104.2682,255.8447,0,U,66058,999,4080,.9083463E-3,.30437E-3,0
STARLINK-35560,2025-235B,2026-07-04T09:30:49.210560,15.34438847,.00020664,53.1601,62.9083,77.8343,282.2891,0,U,66059,999,4079,.13935341E-2,.47062E-3,0
STARLINK-35558,2025-235C,2026-07-05T00:51:16.648704,15.30254785,.0001232,53.1605,60.4985,85.1650,274.9491,0,U,66060,999,4088,.12458146E-2,.36784E-3,0
STARLINK-35566,2025-235D,2026-07-05T01:19:59.414592,15.30272906,.00009859,53.1590,59.9088,79.9478,280.1634,0,U,66061,999,4089,.17892115E-2,.53132E-3,0
STARLINK-35421,2025-235E,2026-07-04T22:52:31.683936,15.34466169,.00011524,53.1578,59.9900,87.5327,272.5808,0,U,66062,999,4088,.15816391E-2,.53557E-3,0
STARLINK-35562,2025-235F,2026-07-05T01:03:27.368064,15.30222600,.00011457,53.1604,60.5452,90.6818,269.4314,0,U,66063,999,4088,.16143828E-2,.47796E-3,0
STARLINK-35542,2025-235G,2026-07-05T00:36:04.260384,15.30283606,.00006161,53.1583,60.4353,107.4443,252.6625,0,U,66064,999,4088,.15096311E-2,.44737E-3,0
STARLINK-35375,2025-235H,2026-07-05T01:00:23.364576,15.30237899,.0001239,53.1605,60.5367,93.8739,266.2403,0,U,66065,999,4088,.14018715E-2,.41441E-3,0
STARLINK-35179,2025-235J,2026-07-05T00:42:09.452448,15.30249768,.00012303,53.1589,60.4578,84.8815,275.2327,0,U,66066,999,4088,.11049596E-2,.3256E-3,0
STARLINK-35401,2025-235K,2026-07-05T01:48:00.533952,15.34379772,.00020089,53.1595,59.3260,80.4227,279.7002,0,U,66067,999,4087,.87843675E-3,.29401E-3,0
STARLINK-35422,2025-235L,2026-07-05T02:03:09.737568,15.34349736,.00026637,53.1599,59.3893,70.2560,289.8730,0,U,66068,999,4087,.14380807E-2,.48451E-3,0
STARLINK-35279,2025-235M,2026-07-04T16:04:47.315712,15.30295037,.00015149,53.1580,61.7639,93.9920,266.1254,0,U,66069,999,4083,.24187399E-2,.72188E-3,0
STARLINK-35295,2025-235N,2026-07-04T09:13:48.283968,15.30227261,.00009425,53.1598,63.5381,80.8004,279.3103,0,U,66070,999,4078,.87038528E-3,.25529E-3,0
STARLINK-35323,2025-235P,2026-07-04T09:30:21.876192,15.30219847,.00020013,53.1584,62.8992,95.6897,264.4332,0,U,66071,999,4079,.13264641E-2,.39159E-3,0
STARLINK-35299,2025-235Q,2026-07-05T00:35:25.080576,15.34461423,.00016181,53.1582,59.7241,88.4965,271.6223,0,U,66072,999,4089,.18527263E-2,.62871E-3,0
STARLINK-35274,2025-235R,2026-07-04T01:25:04.093824,15.30215601,.0001492,53.1613,65.0667,101.5914,258.5255,0,U,66073,999,4073,.96173E-3,.28247E-3,0
STARLINK-35321,2025-235S,2026-07-04T09:06:12.698496,15.30215134,.00012211,53.1600,63.5086,85.0331,275.0809,0,U,66074,999,4078,.14176271E-2,.41883E-3,0
STARLINK-35131,2025-235T,2026-07-04T08:54:27.257184,15.34444833,.00014839,53.1594,62.7515,89.7013,270.4159,0,U,66075,999,4079,.73514007E-3,.24578E-3,0
STARLINK-34801,2025-235U,2026-07-05T00:37:35.986080,15.30251605,.00012785,53.1593,60.4342,82.9778,277.1368,0,U,66076,999,4088,.11529651E-2,.33999E-3,0
STARLINK-35129,2025-235V,2026-07-04T09:15:39.594816,15.34420720,.00022625,53.1600,62.8406,83.7770,276.3490,0,U,66077,999,4079,.11811486E-2,.3977E-3,0
STARLINK-35116,2025-235W,2026-07-04T09:18:40.688352,15.34448458,.0000958,53.1610,62.8518,47.7520,312.3564,0,U,66078,999,4079,.12154978E-2,.40979E-3,0
STARLINK-35402,2025-235X,2026-07-04T16:00:14.418720,15.30263596,.0001038,53.1591,61.7445,74.7188,285.3927,0,U,66079,999,4083,.19242022E-2,.57182E-3,0
STARLINK-35325,2025-235Y,2026-07-04T22:37:22.608192,15.34456763,.00011855,53.1579,59.9172,86.1653,273.9485,0,U,66080,999,4088,.14144038E-2,.47803E-3,0
STARLINK-35403,2025-235Z,2026-07-05T00:59:58.244640,15.31771591,.00004898,53.1594,59.1055,122.8737,237.2312,0,U,66081,999,4090,.1997836E-2,.62289E-3,0
STARLINK-35011,2025-235AA,2026-07-05T01:20:08.020032,15.31804193,.00006009,53.1585,59.1957,99.8538,260.2532,0,U,66082,999,4090,.21768444E-2,.68025E-3,0
STARLINK-35291,2025-235AB,2026-07-04T09:18:21.911040,15.30219840,.00017654,53.1613,63.5555,92.2875,267.8328,0,U,66083,999,4075,.55942143E-3,.16256E-3,0
