STARLINK-35399          
1 66029U 25232AA  26186.24583816  .00040191  00000+0  11926-2 0  9992
2 66029  53.1597 277.1779 0000829  98.1943 261.9154 15.34444406 41444
STARLINK-35431          
1 66030U 25232AB  26186.21638334  .00033474  00000+0  99619-3 0  9999
2 66030  53.1571 276.9957 0001405  89.9279 270.1884 15.34439344 41441
STARLINK-35326          
1 66031U 25232AC  26186.24995719  .00028119  00000+0  83900-3 0  9992
2 66031  53.1592 276.4906 0000744  84.9424 275.1663 15.34446851 41458
STARLINK-35311          
1 66032U 25232AD  26185.53767355  .00061384  00000+0  18098-2 0  9993
2 66032  53.1587 279.8666 0000942  66.7005 293.4097 15.34456277 41341
STARLINK-35552          
1 66058U 25235A   26185.07434561  .00030437  00000+0  90835-3 0  9998
2 66058  53.1576  60.1549 0001138 104.2682 255.8447 15.34398925 40801
STARLINK-35560          
1 66059U 25235B   26185.39640290  .00047062  00000+0  13935-2 0  9999
2 66059  53.1601  62.9083 0002066  77.8343 282.2891 15.34438847 40797
STARLINK-35558          
1 66060U 25235C   26186.03560936  .00036784  00000+0  12458-2 0  9999
2 66060  53.1605  60.4985 0001232  85.1650 274.9491 15.30254785 40881
STARLINK-35566          
1 66061U 25235D   26186.05554878  .00053132  00000+0  17892-2 0  9993
2 66061  53.1590  59.9088 0000985  79.9478 280.1634 15.30272906 40899
STARLINK-35421          
1 66062U 25235E   26185.95314449  .00053557  00000+0  15816-2 0  9995
2 66062  53.1578  59.9900 0001152  87.5327 272.5808 15.34466169 40881
STARLINK-35562          
1 66063U 25235F   26186.04406676  .00047796  00000+0  16144-2 0  9994
2 66063  53.1604  60.5452 0001145  90.6818 269.4314 15.30222600 40887
STARLINK-35542          
1 66064U 25235G   26186.02504931  .00044737  00000+0  15096-2 0  9993
2 66064  53.1583  60.4353 0000616 107.4443 252.6625 15.30283606 40888
STARLINK-35375          
1 66065U 25235H   26186.04193709  .00041441  00000+0  14019-2 0  9996
2 66065  53.1605  60.5367 0001239  93.8739 266.2403 15.30237899 40886
STARLINK-35179          
1 66066U 25235J   26186.02927607  .00032560  00000+0  11050-2 0  9991
2 66066  53.1589  60.4578 0001230  84.8815 275.2327 15.30249768 40880
STARLINK-35401          
1 66067U 25235K   26186.07500618  .00029401  00000+0  87844-3 0  9991
2 66067  53.1595  59.3260 0002008  80.4227 279.7002 15.34379772 40877
STARLINK-35422          
1 66068U 25235L   26186.08552937  .00048451  00000+0  14381-2 0  9995
2 66068  53.1599  59.3893 0002663  70.2560 289.8730 15.34349736 40875
STARLINK-35279          
1 66069U 25235M   26185.66999208  .00072188  00000+0  24187-2 0  9994
2 66069  53.1580  61.7639 0001514  93.9920 266.1254 15.30295037 40832
STARLINK-35295          
1 66070U 25235N   26185.38458662  .00025529  00000+0  87039-3 0  9992
2 66070  53.1598  63.5381 0000942  80.8004 279.3103 15.30227261 40786
STARLINK-35323          
1 66071U 25235P   26185.39608653  .00039159  00000+0  13265-2 0  9994
2 66071  53.1584  62.8992 0002001  95.6897 264.4332 15.30219847 40795
STARLINK-35299          
1 66072U 25235Q   26186.02459584  .00062871  00000+0  18527-2 0  9996
2 66072  53.1582  59.7241 0001618  88.4965 271.6223 15.34461423 40898
STARLINK-35274          
1 66073U 25235R   26185.05907517  .00028247  00000+0  96173-3 0  9996
2 66073  53.1613  65.0667 0001492 101.5914 258.5255 15.30215601 40730
STARLINK-35321          
1 66074U 25235S   26185.37931364  .00041883  00000+0  14176-2 0  9992
2 66074  53.1600  63.5086 0001221  85.0331 275.0809 15.30215134 40789
STARLINK-35131          
1 66075U 25235T   26185.37114881  .00024578  00000+0  73514-3 0  9994
2 66075  53.1594  62.7515 0001483  89.7013 270.4159 15.34444833 40790
STARLINK-34801          
1 66076U 25235U   26186.02611095  .00033999  00000+0  11530-2 0  9993
2 66076  53.1593  60.4342 0001278  82.9778 277.1368 15.30251605 40883
STARLINK-35129          
1 66077U 25235V   26185.38587494  .00039770  00000+0  11811-2 0  9992
2 66077  53.1600  62.8406 0002262  83.7770 276.3490 15.34420720 40792
STARLINK-35116          
1 66078U 25235W   26185.38797093  .00040979  00000+0  12155-2 0  9996
2 66078  53.1610  62.8518 0000958  47.7520 312.3564 15.34448458 40792
STARLINK-35402          
1 66079U 25235X   26185.66683355  .00057182  00000+0  19242-2 0  9991
2 66079  53.1591  61.7445 0001038  74.7188 285.3927 15.30263596 40839
STARLINK-35325          
1 66080U 25235Y   26185.94262278  .00047803  00000+0  14144-2 0  9996
2 66080  53.1579  59.9172 0001185  86.1653 273.9485 15.34456763 40881
STARLINK-35403          
1 66081U 25235Z   26186.04164635  .00062289  00000+0  19978-2 0  9992
2 66081  53.1594  59.1055 0000489 122.8737 237.2312 15.31771591 40909
STARLINK-35011          
1 66082U 25235AA  26186.05564838  .00068025  00000+0  21768-2 0  9997
2 66082  53.1585  59.1957 0000600  99.8538 260.2532 15.31804193 40903
STARLINK-35291          
1 66083U 25235AB  26185.38775360  .00016256  00000+0  55942-3 0  9998
2 66083  53.1613  63.5555 0001765  92.2875 267.8328 15.30219840 40750
